[{"OBJECT_NAME":"STARLINK-3761","OBJECT_ID":"2022-041B","EPOCH":"2026-03-09T09:08:14.342784","MEAN_MOTION":15.08842697,"ECCENTRICITY":0.00018896,"INCLINATION":53.2167,"RA_OF_ASC_NODE":110.4603,"ARG_OF_PERICENTER":91.5589,"MEAN_ANOMALY":268.562,"EPHEMERIS_TYPE":0,"CLASSIFICATION_TYPE":"U","NORAD_CAT_ID":52262,"ELEMENT_SET_NO":999,"REV_AT_EPOCH":21431,"BSTAR":1.038593e-6,"MEAN_MOTION_DOT":-2.72e-6,"MEAN_MOTION_DDOT":0},{"OBJECT_NAME":"YUNYAO-1 46","OBJECT_ID":"2025-059D","EPOCH":"2026-03-09T22:34:36.342624","MEAN_MOTION":15.10325082,"ECCENTRICITY":0.00132847,"INCLINATION":97.6091,"RA_OF_ASC_NODE":250.9055,"ARG_OF_PERICENTER":123.8801,"MEAN_ANOMALY":236.3694,"EPHEMERIS_TYPE":0,"CLASSIFICATION_TYPE":"U","NORAD_CAT_ID":63347,"ELEMENT_SET_NO":999,"REV_AT_EPOCH":5331,"BSTAR":0.0002771923,"MEAN_MOTION_DOT":4.488e-5,"MEAN_MOTION_DDOT":0}]
